{
  "type": "FeatureCollection",
  "features": [
    {
      "type": "Feature",
      "properties": {
        "norad_id": 35108,
        "name": "FENGYUN 1C DEB",
        "group": "fengyun-1c-debris",
        "lat": -77.29316310994676,
        "lon": 114.8092289223831,
        "alt_km": 973.9660287535744,
        "timestamp": "2025-12-08T10:52:03.234993+00:00",
        "meta_object_name": "FENGYUN 1C DEB",
        "meta_object_id": "1999-025DKL",
        "meta_epoch": "2025-11-17T16:56:54.235392",
        "meta_mean_motion": 14.06875481,
        "meta_eccentricity": 0.01346692,
        "meta_inclination": 98.7997,
        "meta_ra_of_asc_node": 318.0085,
        "meta_arg_of_pericenter": 131.4741,
        "meta_mean_anomaly": 229.8083,
        "meta_ephemeris_type": 0,
        "meta_classification_type": "U",
        "meta_norad_cat_id": 35108,
        "meta_element_set_no": 999,
        "meta_rev_at_epoch": 88886,
        "meta_bstar": 0.00053903391,
        "meta_mean_motion_dot": 9.33e-06,
        "meta_mean_motion_ddot": 0,
        "tle_line1": "1 35108U 99025DKL 25321.70618328  .00000933  00000+0  53903-3 0  9997",
        "tle_line2": "2 35108  98.7997 318.0085 0134669 131.4741 229.8083 14.06875481888867"
      },
      "geometry": {
        "type": "Point",
        "coordinates": [
          114.8092289223831,
          -77.29316310994676
        ]
      }
    },
    {
      "type": "Feature",
      "properties": {
        "norad_id": 35109,
        "name": "FENGYUN 1C DEB",
        "group": "fengyun-1c-debris",
        "lat": -22.909330535910946,
        "lon": 148.16737224273385,
        "alt_km": 928.9016782674053,
        "timestamp": "2025-12-08T10:52:03.235003+00:00",
        "meta_object_name": "FENGYUN 1C DEB",
        "meta_object_id": "1999-025DKM",
        "meta_epoch": "2025-12-07T10:15:48.199680",
        "meta_mean_motion": 14.20863199,
        "meta_eccentricity": 0.01536462,
        "meta_inclination": 98.616,
        "meta_ra_of_asc_node": 330.8412,
        "meta_arg_of_pericenter": 49.6619,
        "meta_mean_anomaly": 311.7863,
        "meta_ephemeris_type": 0,
        "meta_classification_type": "U",
        "meta_norad_cat_id": 35109,
        "meta_element_set_no": 999,
        "meta_rev_at_epoch": 64084,
        "meta_bstar": 0.00051485232,
        "meta_mean_motion_dot": 1.212e-05,
        "meta_mean_motion_ddot": 0,
        "tle_line1": "1 35109U 99025DKM 25341.42764120  .00001212  00000+0  51485-3 0  9995",
        "tle_line2": "2 35109  98.6160 330.8412 0153646  49.6619 311.7863 14.20863199640845"
      },
      "geometry": {
        "type": "Point",
        "coordinates": [
          148.16737224273385,
          -22.909330535910946
        ]
      }
    },
    {
      "type": "Feature",
      "properties": {
        "norad_id": 35111,
        "name": "FENGYUN 1C DEB",
        "group": "fengyun-1c-debris",
        "lat": -26.963584955485167,
        "lon": -123.99256841414933,
        "alt_km": 847.5919987316611,
        "timestamp": "2025-12-08T10:52:03.235013+00:00",
        "meta_object_name": "FENGYUN 1C DEB",
        "meta_object_id": "1999-025DKP",
        "meta_epoch": "2025-12-07T11:45:43.563456",
        "meta_mean_motion": 14.10954545,
        "meta_eccentricity": 0.00216077,
        "meta_inclination": 99.4664,
        "meta_ra_of_asc_node": 59.8627,
        "meta_arg_of_pericenter": 235.1352,
        "meta_mean_anomaly": 124.7786,
        "meta_ephemeris_type": 0,
        "meta_classification_type": "U",
        "meta_norad_cat_id": 35111,
        "meta_element_set_no": 999,
        "meta_rev_at_epoch": 64070,
        "meta_bstar": 0.00078112566,
        "meta_mean_motion_dot": 1.356e-05,
        "meta_mean_motion_ddot": 0,
        "tle_line1": "1 35111U 99025DKP 25341.49008754  .00001356  00000+0  78113-3 0  9995",
        "tle_line2": "2 35111  99.4664  59.8627 0021607 235.1352 124.7786 14.10954545640705"
      },
      "geometry": {
        "type": "Point",
        "coordinates": [
          -123.99256841414933,
          -26.963584955485167
        ]
      }
    },
    {
      "type": "Feature",
      "properties": {
        "norad_id": 35116,
        "name": "FENGYUN 1C DEB",
        "group": "fengyun-1c-debris",
        "lat": -54.03700420169612,
        "lon": -163.65587957583097,
        "alt_km": 857.3846230264526,
        "timestamp": "2025-12-08T10:52:03.235023+00:00",
        "meta_object_name": "FENGYUN 1C DEB",
        "meta_object_id": "1999-025DKU",
        "meta_epoch": "2025-12-06T13:57:31.845312",
        "meta_mean_motion": 14.25033527,
        "meta_eccentricity": 0.00589098,
        "meta_inclination": 98.6595,
        "meta_ra_of_asc_node": 26.6227,
        "meta_arg_of_pericenter": 66.5882,
        "meta_mean_anomaly": 294.1477,
        "meta_ephemeris_type": 0,
        "meta_classification_type": "U",
        "meta_norad_cat_id": 35116,
        "meta_element_set_no": 999,
        "meta_rev_at_epoch": 59872,
        "meta_bstar": 0.0018081159,
        "meta_mean_motion_dot": 4.271e-05,
        "meta_mean_motion_ddot": 0,
        "tle_line1": "1 35116U 99025DKU 25340.58161858  .00004271  00000+0  18081-2 0  9990",
        "tle_line2": "2 35116  98.6595  26.6227 0058909  66.5882 294.1477 14.25033527598728"
      },
      "geometry": {
        "type": "Point",
        "coordinates": [
          -163.65587957583097,
          -54.03700420169612
        ]
      }
    },
    {
      "type": "Feature",
      "properties": {
        "norad_id": 35121,
        "name": "FENGYUN 1C DEB",
        "group": "fengyun-1c-debris",
        "lat": 6.18405595662674,
        "lon": -154.84394638889904,
        "alt_km": 902.2245551676187,
        "timestamp": "2025-12-08T10:52:03.235033+00:00",
        "meta_object_name": "FENGYUN 1C DEB",
        "meta_object_id": "1999-025DKZ",
        "meta_epoch": "2025-11-23T20:23:41.984736",
        "meta_mean_motion": 14.04733583,
        "meta_eccentricity": 0.0157971,
        "meta_inclination": 98.3025,
        "meta_ra_of_asc_node": 192.694,
        "meta_arg_of_pericenter": 150.2058,
        "meta_mean_anomaly": 210.8223,
        "meta_ephemeris_type": 0,
        "meta_classification_type": "U",
        "meta_norad_cat_id": 35121,
        "meta_element_set_no": 999,
        "meta_rev_at_epoch": 60826,
        "meta_bstar": 0.00039097454,
        "meta_mean_motion_dot": 6.63e-06,
        "meta_mean_motion_ddot": 0,
        "tle_line1": "1 35121U 99025DKZ 25327.84979149  .00000663  00000+0  39097-3 0  9992",
        "tle_line2": "2 35121  98.3025 192.6940 0157971 150.2058 210.8223 14.04733583608261"
      },
      "geometry": {
        "type": "Point",
        "coordinates": [
          -154.84394638889904,
          6.18405595662674
        ]
      }
    },
    {
      "type": "Feature",
      "properties": {
        "norad_id": 35122,
        "name": "FENGYUN 1C DEB",
        "group": "fengyun-1c-debris",
        "lat": 34.86466244401341,
        "lon": -172.90328107480198,
        "alt_km": 826.5260078759757,
        "timestamp": "2025-12-08T10:52:03.235044+00:00",
        "meta_object_name": "FENGYUN 1C DEB",
        "meta_object_id": "1999-025DLA",
        "meta_epoch": "2025-12-07T18:54:09.453024",
        "meta_mean_motion": 14.14116242,
        "meta_eccentricity": 0.00251059,
        "meta_inclination": 98.6723,
        "meta_ra_of_asc_node": 0.3473,
        "meta_arg_of_pericenter": 171.6296,
        "meta_mean_anomaly": 188.5302,
        "meta_ephemeris_type": 0,
        "meta_classification_type": "U",
        "meta_norad_cat_id": 35122,
        "meta_element_set_no": 999,
        "meta_rev_at_epoch": 63797,
        "meta_bstar": 0.00049054985,
        "meta_mean_motion_dot": 8.94e-06,
        "meta_mean_motion_ddot": 0,
        "tle_line1": "1 35122U 99025DLA 25341.78760941  .00000894  00000+0  49055-3 0  9991",
        "tle_line2": "2 35122  98.6723   0.3473 0025105 171.6296 188.5302 14.14116242637977"
      },
      "geometry": {
        "type": "Point",
        "coordinates": [
          -172.90328107480198,
          34.86466244401341
        ]
      }
    },
    {
      "type": "Feature",
      "properties": {
        "norad_id": 35123,
        "name": "FENGYUN 1C DEB",
        "group": "fengyun-1c-debris",
        "lat": 34.961845671578175,
        "lon": -8.577306448071601,
        "alt_km": 788.8209338126035,
        "timestamp": "2025-12-08T10:52:03.235054+00:00",
        "meta_object_name": "FENGYUN 1C DEB",
        "meta_object_id": "1999-025DLB",
        "meta_epoch": "2025-12-05T23:10:58.256256",
        "meta_mean_motion": 14.2418948,
        "meta_eccentricity": 0.0049671,
        "meta_inclination": 99.1223,
        "meta_ra_of_asc_node": 162.3921,
        "meta_arg_of_pericenter": 95.3297,
        "meta_mean_anomaly": 265.355,
        "meta_ephemeris_type": 0,
        "meta_classification_type": "U",
        "meta_norad_cat_id": 35123,
        "meta_element_set_no": 999,
        "meta_rev_at_epoch": 60977,
        "meta_bstar": 0.00090983273,
        "meta_mean_motion_dot": 2.077e-05,
        "meta_mean_motion_ddot": 0,
        "tle_line1": "1 35123U 99025DLB 25339.96595204  .00002077  00000+0  90983-3 0  9998",
        "tle_line2": "2 35123  99.1223 162.3921 0049671  95.3297 265.3550 14.24189480609774"
      },
      "geometry": {
        "type": "Point",
        "coordinates": [
          -8.577306448071601,
          34.961845671578175
        ]
      }
    }
  ]
}